X,Y,NAME,ADDRESS,ZIPCODE,WARD,ID,MAR_ID,XCOORD,YCOORD,GIS_ID,CREATOR,CREATED,EDITOR,EDITED,GLOBALID,OBJECTID
-8579996.94455908,4716489.62322191,PNC,5530 CONNECTICUT AVENUE NW,20015,3,2,263837,393463.49,143991.09,temp_159,,,,,{7C54A5B3-1DDF-4C9A-BDEE-60EA2DEEF1A9},1
-8574130.57222608,4715753.0339811,Treasury Dept. FCU(Allpoint),701 MADISON STREET NW,20011,4,1,250335,398030.53,143417.48,temp_175,,,,,{549E1AB5-6F39-478E-BF2B-3B34E21B1E2B},2
-8580904.92137534,4715549.43184768,Bank of America,5201 WISCONSIN AVENUE NW,20015,3,8,274083,392755.93,143262.67,temp_165,,,,,{90A572FE-551D-41FE-B448-9F967DAAFE0C},3
-8574636.13394169,4715047.06780389,CVS(Allpoint),5227 GEORGIA AVENUE NW,20011,4,3,251714,397636.74,142870.14,temp_177,,,,,{A83136B8-C601-40B2-BFF3-533D1D39DADB},4
-8580514.55213864,4714425.64198978,CVS(Allpoint),4555 WISCONSIN AVENUE NW,20016,3,17,300795,393059.11,142390.91,temp_174,,,,,{3366EDC0-0A36-4139-8F4F-6BD8A91EA6AA},5
-8580567.8539522,4714302.5575406,Bank of America,4500 WISCONSIN AVENUE NW,20016,3,4,264422,393017.52,142295.49,temp_161,,,,,{A64FFC63-DA73-4B09-8BA9-E2CFBE293DEE},6
-8582417.97708991,4713897.77410029,United Bank,4900 MASSACHUSETTS AVENUE NW,20016,3,1,269772,391576.49,141982.96,temp_158,,,,,{FB20B292-A784-4F38-B96E-06D949C887DF},7
-8582332.73113546,4713734.3222992,Bank of America,4301 49TH STREET NW,20016,3,9,266468,391642.74,141856.12,temp_166,,,,,{EB83E366-643E-436A-B1C7-F18EE52F7D5F},8
-8578573.50464601,4713578.37682354,Bank of America,4201 CONNECTICUT AVENUE NW,20008,3,7,220631,394570.14,141732.62,temp_164,,,,,{6CB306BC-0558-4370-8FAB-2254E7ABB1D3},9
-8571697.2727338,4713266.17360628,7-Eleven(Allpoint),333 HAWAII AVENUE NE,20011,5,14,290127,399925.06,141488.61,temp_191,,,,,{A021110E-4192-41BE-A59D-60197487F8C5},10
-8574442.66439093,4713229.06895541,ATM Services Corporation,4100 Georgia Ave NW ,20011,4,156,300492,397786.99,141460.14,temp_273,,,,,{D32B73EC-49A8-4ECC-BDB9-DDA8614A44A2},11
-8574450.02028853,4713084.9772032,7-Eleven(Allpoint),4000 GEORGIA AVENUE NW,20011,4,2,223657,397781.23,141348.38,temp_176,,,,,{FF6B20AA-3354-447D-8B3D-3248DCFB4BBD},12
-8578213.53697651,4712572.4093878,Walgreens(Allpoint),3524 CONNECTICUT AVENUE NW,20008,3,12,220938,394849.96,140952.17,temp_169,,,,,{54BB2248-5B82-4E2B-8C82-84A2C6C13F5A},13
-8578098.6866003,4712553.28753848,Bank of America,3519 CONNECTICUT AVENUE NW,20008,3,6,295765,394939.4,140937.28,temp_163,,,,,{4EB2A1CB-CA5E-4B97-8500-610297512CEB},14
-8574319.35533693,4712452.10480463,CVS(Allpoint),3642 GEORGIA AVENUE NW,20010,1,24,308316,397882.86,140857.46,temp_24,,,,,{C6DA7DC8-F6FF-4CB1-9E59-DC47A4051CF3},15
-8574312.95206868,4712369.27643536,"Atlantic Financial, Inc.",3634 Georgia Avenue NW upstairs,20010,1,164,232144,397887.83,140793.21,temp_269,,,,,{61C82435-0982-4BA4-BDB3-0C3FD885CA7E},16
-8570656.80941552,4712353.33935774,7-Eleven(Allpoint),3700 12TH STREET NE,20017,5,15,31913,400735.42,140780.6,temp_192,,,,,{F6AB065D-19B9-4937-9C6F-09013198C18F},17
-8578008.94513753,4712320.40142804,Bank of America,3401 CONNECTICUT AVENUE NW,20008,3,5,275650,395009.18,140756.59,temp_162,,,,,{92023987-D22E-4E72-8BB9-58BD89ADB371},18
-8579727.02063813,4712272.34508557,CVS(Allpoint),3336 WISCONSIN AVENUE NW,20016,3,11,223125,393671.02,140720.27,temp_168,,,,,{5E5CA762-BDB2-40F9-AF65-B006A62CF1B5},19
-8577982.26111342,4712273.26044352,CVS(Allpoint),3327 CONNECTICUT AVENUE NW,20008,3,13,219245,395029.94,140720.01,temp_170,,,,,{B56B5B16-848B-4857-9B86-681296893894},20
-8570588.77616913,4712195.59029534,CVS(Allpoint),3601 12TH STREET NE,20017,5,13,289172,400788.42,140658.24,temp_190,,,,,{DEFA4AA9-A716-40C7-8C1C-CBCF4DE4469E},21
-8575154.52130849,4711767.21894532,Bank of America,1345 PARK ROAD NW,20010,1,7,297595,397232.21,140326.39,temp_7,,,,,{C2CEE46B-631E-4025-9AEF-06687BE025AE},22
-8575846.56014808,4711664.24990169,7-Eleven(Allpoint),3146 MOUNT PLEASANT STREET NW,20010,1,23,236468,396693.15,140246.72,temp_23,,,,,{6CE65BCC-05E7-4183-9621-7BD555AF4E3E},23
-8575171.59270423,4711645.61250875,Lafyette FCU(Money Pass),1381 KENYON STREET NW,20010,1,12,306242,397218.88,140232.06,temp_12,,,,,{CB3D095E-99A6-4942-9D53-A322DDC7608E},24
-8577786.56271373,4711635.35419877,7-Eleven(Allpoint),3000 CONNECTICUT AVENUE NW,20008,3,15,219893,395182.06,140225.08,temp_172,,,,,{CB7F16C0-A854-4AF8-A8B0-F3FDEA9A77B5},25
-8575763.77600635,4711598.39907508,Bank of America,3131 MOUNT PLEASANT STREET NW,20010,1,8,284590,396757.61,140195.61,temp_8,,,,,{759E84E0-886B-4C88-8764-17D4A7C7BE09},26
-8575272.77743953,4711550.63537857,Target(Allpoint),3100 14TH STREET NW,20010,1,22,306304,397140.04,140158.41,temp_22,,,,,{231E8425-50DA-455B-BBCA-562EE929DEED},27
-8575343.75865909,4711439.33689309,Signal Financial,1400 IRVING STREET NW,20010,1,9,302718,397084.72,140072.09,temp_9,,,,,{2D754087-BEC6-4BFF-B24F-8B134107427F},28
-8575188.99063547,4711431.50389052,Bank of America,3031 14TH STREET NW,20009,1,6,284557,397205.27,140065.97,temp_6,,,,,{D8CB500D-920C-4441-9AC8-2AAE39E23015},29
-8575718.01057484,4711416.65876831,DGE FCU,3059 MOUNT PLEASANT STREET NW,20009,1,10,301045,396793.2,140054.61,temp_10,,,,,{FF1EBF5F-8156-41EF-B1F4-05AF0007A729},30
-8575245.38554714,4711313.78019929,7-Eleven(Allpoint),3012 14TH STREET NW,20009,1,21,302729,397161.31,139974.66,temp_21,,,,,{6F91A6AE-2972-43EF-AB37-ACBFB1B05D9D},31
-8573914.98624022,4711260.36719895,Bank of America,511 GRESHAM PLACE NW,20059,1,5,304098,398197.59,139932.92,temp_5,,,,,{E1B5D6FC-2234-41F4-BF01-9DF758CC8C45},32
-8570579.76103104,4711060.70373498,Lowest Price Franklin(Allpoint),2800 12TH STREET NE,20017,5,10,44895,400795.53,139777.86,temp_187,,,,,{30348EC2-7573-4D09-8011-850EAC5033B3},33
-8577420.40061295,4710811.47799926,CVS(Allpoint),2616 CONNECTICUT AVENUE NW,20008,3,16,219092,395466.9,139585.77,temp_173,,,,,{292CF93B-37D9-4649-9195-BD5994120EA1},34
-8573733.20726188,4710805.54072683,Bank of America,2397 6TH STREET NW,20059,1,4,291489,398339.11,139580.04,temp_4,,,,,{2DF7EE7B-E689-41BC-BB9A-C2D995810FA6},35
-8576214.52094618,4710773.52036012,7-Eleven (Allpoint),1755 COLUMBIA ROAD NW,20009,1,20,235930,396406.23,139555.84,temp_20,,,,,{31803F77-0B13-4071-B006-E67302409A79},36
-8575232.17396293,4710769.43487608,Amaco Quick Shoppe(Allpoint),2600 14TH STREET NW,20009,1,19,234256,397171.45,139552.36,temp_19,,,,,{4DF1A2EB-7DBB-490B-BC5E-B2FCFF0B27B4},37
-8571264.71370856,4710506.12720152,CVS(Allpoint),660 RHODE ISLAND AVENUE NE,20002,5,8,288842,400262,139347.58,temp_185,,,,,{7B2C2AC0-0DA3-4A3E-A42E-14F126454659},38
-8575880.12091129,4710503.02388458,Harris Teeter(Allpoint),1631 KALORAMA ROAD NW,20009,1,18,284059,396666.63,139345.87,temp_18,,,,,{F4DC919D-41E0-4F40-8713-A8BD7CBAC24E},39
-8579709.79430337,4710500.47374019,Bank of America,2440 WISCONSIN AVENUE NW,20007,3,3,284390,393683.34,139345.71,temp_160,,,,,{DE3DAA4A-39BE-4D56-83C9-D4C4940BA322},40
-8576358.17050912,4710495.54080548,"American PCS Communications, LLC",2450 18th Street NW upstairs,20052,1,165,235411,396294.23,139340.23,temp_265,,,,,{83BCE072-BEDA-4121-A35E-54B93CEFC672},41
-8574007.8498941,4710306.88677216,ATM Services Corporation,2301 f georgia ave nw ,20001,1,159,229522,398125.08,139193.22,temp_274,,,,,{5969D512-D455-4220-A4D3-5DB813292D74},42
-8570400.04546905,4710291.73793966,7-Eleven(Allpoint),1233 BRENTWOOD ROAD NE,20018,5,9,285964,400935.59,139181.3,temp_186,,,,,{A9D12774-E501-450B-A5DF-C1841AB9D182},43
-8579568.33526124,4710195.35549738,CVS(Allpoint),2226 WISCONSIN AVENUE NW,20007,3,14,275326,393793.35,139108.9,temp_171,,,,,{FA9225FC-3264-41F6-9A1F-7B59DC03B288},44
-8568291.13990211,4710160.23742893,Wells Fargo,2119 BLADENSBURG ROAD NE,20018,5,2,51509,402578.48,139079.64,temp_179,,,,,{D4981C0A-3433-4AE6-A4E3-609FD6ECA024},45
-8568464.91037185,4710074.47800228,Transit Employees FCU(Money Pass),2000 BLADENSBURG ROAD NE,20018,5,7,304809,402443.13,139013.06,temp_184,,,,,{24FB2B99-EA91-4C7A-8505-E5BA0FC56538},46
-8575121.57974226,4710063.08636491,CVS(Allpoint),2129 14TH STREET NW,20009,1,13,306455,397257.41,139004.32,temp_13,,,,,{2B69F89C-184E-4014-AB94-F16483E2C646},47
-8575615.2201287,4710027.16173011,"ACFN of Mid-Maryland, LLC","2101 16th Street, NW ",20009,1,146,242036,396872.84,138976.59,temp_252,,,,,{5F6B4476-DABA-4E3F-BAFE-A37A7F4A2612},48
-8576585.68399458,4710000.35968211,7-Eleven(Allpoint),1900 WYOMING AVENUE NW,20009,1,16,243234,396116.81,138956.13,temp_16,,,,,{1764B97F-0A29-4D24-A664-2BB0DF3A7EDA},49
-8575208.19096819,4709854.14178482,DGE FCU,2000 14TH STREET NW,20009,1,11,239976,397189.88,138842.23,temp_11,,,,,{32143E59-94FB-43E5-9F2B-D849545A3E84},50
-8574124.46254743,4709851.19634789,ALLY FINANCIAL INC.,2009 8th Street NW box office,20009,1,154,242769,398034.15,138839.69,temp_262,,,,,{4F2F0002-5E06-44C8-9CAA-375C2E6C7A9B},51
-8574124.46254743,4709851.19634789,ALLY FINANCIAL INC.,2009 8th Street NW ,20009,1,153,242769,398034.15,138839.69,temp_261,,,,,{AA739172-9809-41A3-8DDF-EFFB24E3D3E1},52
-8574124.46254743,4709851.19634789,"American PCS Communications, LLC",2009 8th Street NW upstairs,20009,1,155,242769,398034.15,138839.69,temp_263,,,,,{A9716C93-B077-4F4E-A68D-8BB6B8E5612D},53
-8570277.92230746,4709846.74604999,Transit Employees FCU(Money Pass),1401 W STREET NE,20018,5,6,301003,401030.77,138836.06,temp_183,,,,,{000A0A67-2A4F-44C5-A836-F65011249808},54
-8575014.14671184,4709820.63424148,Bank of Georgetown,1301 U STREET NW,20009,1,2,297578,397341.04,138816.18,temp_2,,,,,{E46AA654-EFB9-4CBF-96E7-1EC8A05546D7},55
-8574692.16078991,4709814.02276233,ALLY FINANCIAL INC.,1115A U Street NW ,20002,1,152,309088,397591.88,138810.97,temp_260,,,,,{FBC858A5-0C49-4E28-B718-9E0C909D803F},56
-8574692.16078991,4709814.02276233,7-Eleven(Allpoint),1115 U STREET NW,20009,1,14,309088,397591.88,138810.97,temp_14,,,,,{3314BB31-2969-4F02-AD32-DF220236F743},57
-8582227.03944788,4709756.17632383,CVS (Allpoint),4859 MACARTHUR BOULEVARD NW,20007,3,10,293246,391721.82,138770.05,temp_167,,,,,{C09DA05A-B61F-4BAB-9DAE-2CF456A10285},58
-8574297.6738471,4709749.29329032,"ALLIED ASSOCIATES, INC.",1940 9th Street NW ,20001,1,158,279498,397899.19,138760.66,temp_256,,,,,{32DE1A75-BEA0-4FA7-9339-AC7BF9AF9605},59
-8574528.99291602,4709745.95532231,CVS(Allpoint),1000 U STREET NW,20001,1,15,242764,397718.98,138758.12,temp_15,,,,,{5EDE832E-E025-4CC1-B30E-BE13CA5143DE},60
-8575188.32963819,4709734.32386198,Wells Fargo,1934 14TH STREET NW,20009,2,1,309040,397205.32,138749.26,temp_25,,,,,{F3122C1F-019B-4C67-AF9D-5CB33C722199},61
-8576828.66591831,4709701.06606506,"ACFN of Mid-Maryland, LLC","1914 Connecticut Avenue, NW ",20009,2,145,235060,395927.4,138724.01,temp_251,,,,,{A2E4C7DE-8406-4B6A-BC7A-EA5CB0B1BEE1},62
-8582297.35115282,4709690.43544073,"Aqua Finance, Inc.",4812 Macarthur Blvd NW upstairs,20007,3,167,284961,391666.99,138719.1,temp_267,,,,,{B0040982-123F-40F5-8B01-CB4491D4A3E7},63
-8579121.63747438,4709664.43644511,Aqua Nails DC (Money Pass),1855 WISCONSIN AVENUE NW,20007,2,101,224665,394141.03,138696.71,temp_123,,,,,{1F9652A2-D1F2-411B-B607-0D3C2ED186FD},64
-8574073.21668891,4709624.92571576,CVS(Allpoint),1900 7TH STREET NW,20001,1,17,238381,398074.03,138664.12,temp_17,,,,,{4738F594-9282-4494-B390-5CCC1BB3DC33},65
-8574020.07211102,4709609.66587448,Wells Fargo,1901 7TH STREET NW,20001,1,1,306547,398115.43,138652.27,temp_1,,,,,{BBDE8C7B-E5F7-4EF2-B997-AF7BAA9908D1},66
-8579103.34848968,4709580.3664123,Cardinal Bank (Money Pass),1825 WISCONSIN AVENUE NW,20007,2,103,309641,394155.23,138631.47,temp_125,,,,,{28CD6CA9-F2A8-409D-988B-51DA8AFAB001},67
-8575133.57670613,4709566.14971265,"ACFN of Mid-Maryland, LLC",1847 14th Street NW ,20009,1,149,240488,397247.93,138618.76,temp_255,,,,,{59A5457D-B8CC-4EC0-A63B-798B4C2A9773},68
-8574018.20493687,4709530.33893871,Bank of America,1845 7TH STREET NW,20001,1,3,279439,398116.87,138590.72,temp_3,,,,,{462B57F2-D5FD-48F1-B9CA-3D7084B10103},69
-8575854.24358187,4709338.30666502,National Capital Bank of Washington(star),1737 17TH STREET NW,20009,2,81,241969,396686.41,138442.19,temp_104,,,,,{9C30583B-7877-45C0-9B97-6BC9EDA4AD55},70
-8575926.3851119,4709199.52488522,7-Eleven(Allpoint),1700 17TH STREET NW,20009,2,124,226276,396630.16,138334.53,temp_140,,,,,{93DEF605-A340-4DF8-BF9E-882879D3700B},71
-8574073.14423417,4709061.08868021,7-Eleven(Allpoint),1622 7TH STREET NW,20001,2,39,225831,398073.98,138226.63,temp_230,,,,,{DD445976-DA3A-4FCB-8EB6-DBEDD648C19F},72
-8575857.80404553,4709042.64595724,ALLY FINANCIAL INC.,1617 17th Street ,20009,2,143,300166,396683.54,138212.78,temp_258,,,,,{9838B3B9-3A6E-4290-840D-6BBCDE43731D},73
-8575853.20859588,4708856.83581694,JR's Bar & Grill 2(star),1519 17TH STREET NW,20036,2,75,225669,396687.06,138068.6,temp_98,,,,,{0D61A37F-EB3B-43D9-BE9F-0CA1F691F258},74
-8575857.92152428,4708832.01275164,JR's Bar & Grill(star),1517 17TH STREET NW,20036,2,71,225658,396683.38,138049.34,temp_94,,,,,{C139DC18-0DB7-4722-B129-A0FA46C352D9},75
-8576530.55875714,4708820.05728822,PNC,1913 MASSACHUSETTS AVENUE NW,20036,2,21,300942,396159.31,138040.3,temp_45,,,,,{B40F7BDD-2875-4234-ACD0-2B6CCF305058},76
-8571470.20593368,4708801.21737573,PNC,1348 4TH STREET NE,20002,5,4,286090,400101.94,138024.75,temp_181,,,,,{77A5CF10-E4DF-4A90-8DC2-92DB35689FD1},77
-8575413.40283191,4708785.08678667,Vida Fintess-Metropole(star),1515 15TH STREET NW,20005,2,76,300331,397029.7,138012.79,temp_99,,,,,{CEF83A48-B17F-4CD0-9E39-42F11EAA9EF4},78
-8575855.45516949,4708765.56677901,CVS(star),1637 P STREET NW,20036,2,70,225837,396685.28,137997.78,temp_93,,,,,{EB7E976F-639B-4C0D-A0CC-AEC8B1D880A9},79
-8577002.40683868,4708764.2077047,State Liquors(Allpoint),2159 P STREET NW,20037,2,135,225945,395791.66,137997.15,temp_150,,,,,{AC4220AE-E066-4786-AF46-211D46212466},80
-8575354.9441434,4708762.14349755,Wells Fargo,1447 P STREET NW,20005,2,1,306675,397075.24,137994.97,temp_178,,,,,{F7BCFE3D-645E-494E-86B0-D170D377B7D5},81
-8577761.23165516,4708721.50407324,7-Eleven(Allpoint),2617 P STREET NW,20007,2,141,275887,395200.42,137964.35,temp_156,,,,,{53890C8F-2FC8-4E73-B7E7-29D2376BE3AF},82
-8575337.53609726,4708716.37445365,Lafayette FUC(star),1440 P STREET NW,20005,2,85,279174,397088.79,137959.45,temp_108,,,,,{ED6D6865-8315-4F02-B1C6-3C0B921778A0},83
-8576553.08158129,4708709.03530392,CVS(Allpoint),6 DUPONT CIRCLE NW,20036,2,127,241054,396141.72,137954.16,temp_143,,,,,{2D050CFB-D7FE-4177-B4E7-C3DBF34B120D},84
-8576665.19069442,4708702.74241829,1 West Dupont Circle Wine & Liquor(Allpoint),2012 P STREET NW,20036,2,130,242649,396054.37,137949.32,temp_146,,,,,{B72F2557-05B5-4E80-BBF8-A997D2B27835},85
-8575257.93963156,4708695.07521306,CVS Store #02817(star),1418 P STREET NW,20005,2,90,279148,397150.8,137942.9,temp_113,,,,,{6FCD4382-7821-43D1-A416-C6D0ED8CE892},86
-8575727.92168166,4708655.74326279,Metro Café(star),1400 16TH STREET NW,20036,2,63,242015,396784.61,137912.52,temp_86,,,,,{097617EA-4764-4548-A608-7DF0CC195C90},87
-8579791.77373479,4708615.961919,PNC,3700 O STREET NW,20057,2,23,291456,393618.3,137883.57,temp_47,,,,,{4AA0B625-991A-4F5D-911E-E49586DF5CFD},88
-8578687.69136643,4708595.01611044,CVS(Allpoint),1403 WISCONSIN AVENUE NW,20007,2,142,223778,394478.52,137866.67,temp_157,,,,,{4AF1CD9E-EAF5-408A-8766-0F0EE8358613},89
-8575115.03915302,4708589.99270619,The Barrell House (Money Pass),1341 14TH STREET NW,20005,2,105,225407,397262.11,137861.32,temp_126,,,,,{9917F76E-320E-49BE-A8C3-0D9DE67B5D6A},90
-8575193.95422971,4708574.75828074,7-Eleven(star),1400 RHODE ISLAND AVENUE NW,20005,2,83,243093,397200.62,137849.52,temp_106,,,,,{533B25F8-70C6-4DB8-A178-B14EE81F4E90},91
-8576396.62569995,4708546.66870988,Wells Fargo,1350 CONNECTICUT AVENUE NW,20036,2,3,217992,396263.56,137828.11,temp_27,,,,,{172EBDB7-9017-4EAC-929E-CD0414801B77},92
-8575623.0421467,4708541.09059757,Hotel Rouge(star),1315 16TH STREET NW,20036,2,58,242317,396866.29,137823.52,temp_81,,,,,{CBBC7ABF-6657-4C14-A5E0-93D542B7382B},93
-8575275.1502743,4708514.54684131,Hotel Helix(star),1430 RHODE ISLAND AVENUE NW,20005,2,79,279165,397137.34,137802.82,temp_102,,,,,{3565A980-F51B-4E2D-BD15-8A4DEA2D8D19},94
-8575553.7040583,4708493.8098692,Doubletree(star),1515 RHODE ISLAND AVENUE NW,20005,2,59,242312,396920.3,137786.81,temp_82,,,,,{412618C1-59CF-4B18-B44C-879CA57EF08A},95
-8571965.75089314,4708459.54868391,7-Eleven(Allpoint),1315 2ND STREET NE,20002,6,44,306302,399715.84,137759.63,temp_235,,,,,{51A2102F-27D8-4EB0-9358-84787BA3ABED},96
-8578687.73636957,4708456.54550394,7-Eleven (Allpoint),1340 WISCONSIN AVENUE NW,20007,2,45,272138,394478.41,137759.22,temp_69,,,,,{10B80135-2030-4F78-A4B5-1695228959A0},97
-8576351.18956763,4708433.05318191,Wells Fargo,1300 CONNECTICUT AVENUE NW,20036,2,4,218073,396298.92,137739.93,temp_28,,,,,{94B05C35-C603-490D-8594-695952448F80},98
-8576213.84436765,4708368.74705504,Colombo Bank(star),1229 CONNECTICUT AVENUE NW,20036,2,91,278975,396405.91,137689.98,temp_114,,,,,{95A315DF-6BA2-4CC5-9B7E-9DC76493DA89},99
-8575836.71758762,4708366.97891328,Beacon hotel(star),1615 RHODE ISLAND AVENUE NW,20036,2,57,279263,396699.75,137688.48,temp_80,,,,,{BD5A4323-93F8-45C5-831B-85226BD6A9B7},100
-8575205.72553616,4708362.24905436,The Andover House(star),1200 14TH STREET NW,20005,2,93,297577,397191.39,137684.62,temp_116,,,,,{9AEB980B-3040-4B58-ABC5-21F5651669CC},101
-8572931.22373725,4708334.34972728,Bank of America,1225 1ST STREET NW,20001,5,5,237071,398963.58,137662.54,temp_182,,,,,{2EC4FE50-9E7D-4484-8848-572B437F4620},102
-8574572.17202426,4708329.99317925,ATM Services Corporation,1231 11th Street NW ,20001,2,161,239341,397685.02,137659.43,temp_272,,,,,{03C438EB-1850-4FC9-B5CE-5092FFC25E05},103
-8575339.44212585,4708313.72062342,ATM Services Corporation,"1475 Massachusetts Avenue, NW ",20005,2,162,279197,397087.19,137647,temp_271,,,,,{FDA074FF-E505-4742-8DC7-BEB1508BEE64},104
-8575339.44212585,4708313.72062342,Homewood Suites Washington(star),1475 MASSACHUSETTS AVENUE NW,20005,2,72,279197,397087.19,137647,temp_95,,,,,{C930694D-DA6B-4CEF-A978-BE905B9E808A},105
-8575716.68103455,4708312.22112804,Courtyard-DC Embassy row(star),1600 RHODE ISLAND AVENUE NW,20036,2,56,242882,396793.26,137645.95,temp_79,,,,,{410D99C9-57CF-4D72-8C78-494B97870F2F},106
-8576185.00294548,4708306.00173736,Julias Empanadas(star),1221 CONNECTICUT AVENUE NW,20036,2,89,241770,396428.36,137641.28,temp_112,,,,,{A7ADD7DB-9808-4BE5-87EA-8391D65B68F5},107
-8575553.88131688,4708288.79358662,1500 Mass apts(star),1500 MASSACHUSETTS AVENUE NW,20005,2,60,242324,396920.1,137627.72,temp_83,,,,,{1F532455-4E6C-4748-9AFB-A08C3FB9A5E4},108
-8575553.88131688,4708288.79358662,1500 Market(star),1500 MASSACHUSETTS AVENUE NW,20005,2,62,242324,396920.1,137627.72,temp_85,,,,,{FC15EF73-CF45-44A6-948E-ADA861386B46},109
-8572308.55763386,4708229.39897314,CVS(Allpoint),1200 1ST STREET NE,20002,6,42,302635,399448.73,137581.05,temp_233,,,,,{68E235BE-12F4-452A-886A-EAAC3B025C23},110
-8572308.55763386,4708229.39897314,Wells Fargo,1200 1ST STREET NE,20002,6,1,302635,399448.73,137581.05,temp_193,,,,,{86319F9A-5F53-4940-88D9-E0CACFAF9A6E},111
-8576562.39217217,4708218.54250338,Jack's Fresh(star),1919 M STREET NW,20036,2,69,279481,396134.28,137573.55,temp_92,,,,,{957404AE-F618-4695-B817-E83511CA069F},112
-8572212.44150747,4708219.10884957,Harris Teeter(Allpoint),1201 1ST STREET NE,20002,6,43,303728,399523.62,137573.06,temp_234,,,,,{29723ADC-FE4E-4D5D-9FE6-6824A98E6B1E},113
-8575493.7106077,4708212.32187102,Cornerstone Café Inc(star),1501 M STREET NW,20005,2,65,242323,396966.96,137568.36,temp_88,,,,,{E954D287-E7B9-4109-B77D-53AFFA20C584},114
-8573884.44265323,4708212.4779083,Saints Paradise Cafeteria(Allpoint),601 M STREET NW,20001,2,40,238634,398220.85,137568.1,temp_231,,,,,{8F947D9C-3B98-4531-9597-E57748FEFC8F},115
-8576011.38928865,4708208.19197823,Branch Banking & Trust Company(star),1730 RHODE ISLAND AVENUE NW,20036,2,68,241782,396563.6,137565.32,temp_91,,,,,{3C49F5D1-203A-4891-838F-6AB7D0A58567},116
-8576011.38928865,4708208.19197823,Marbi's news stand(star),1730 RHODE ISLAND AVENUE NW,20036,2,55,241782,396563.6,137565.32,temp_78,,,,,{1AF7E881-DD34-438A-ADE7-79F967FC611B},117
-8576753.12655325,4708203.31835037,"ACFN of Mid-Maryland, LLC","2033 M Street, NW ",20036,2,147,279520,395985.66,137561.81,temp_253,,,,,{1785EA71-85A7-4D7C-BFC7-5344395807F8},118
-8575759.20515708,4708196.04361357,Lafayette FUC(star),1615 M STREET NW,20036,2,61,301103,396760.09,137555.81,temp_84,,,,,{DD0FAB7D-0243-44EB-9470-05D2C234BAAB},119
-8571036.62425254,4708184.83336124,PNC,800 FLORIDA AVENUE NE,20002,5,3,288964,400439.78,137546.46,temp_180,,,,,{227FA4C7-4C69-48CA-A803-DE456F72B90B},120
-8578023.75331459,4708146.99918838,CVS(Allpoint),2819 M STREET NW,20007,2,48,272093,394995.6,137518.67,temp_72,,,,,{3F03464D-B060-4BF5-A28B-E9499730A30B},121
-8577000.23195839,4708146.95268423,Walgreens(Allpoint),1217 22ND STREET NW,20037,2,133,294975,395793.1,137518.17,temp_148,,,,,{69756FB4-F1BF-4374-AD69-7EA34F1AECD0},122
-8575932.87558123,4708131.46083285,Bank of America,1710 M STREET NW,20036,2,37,285520,396624.75,137505.75,temp_61,,,,,{DAA101BF-2AFC-4CE5-AECF-D96BA0F1DEAB},123
-8578562.68351064,4708127.69966747,PNC,1201 WISCONSIN AVENUE NW,20007,2,22,272025,394575.67,137503.97,temp_46,,,,,{F8BB0148-735E-4175-8218-46C62D83550C},124
-8578085.74204945,4708126.67632242,Wells Fargo,2901 M STREET NW,20007,2,2,272085,394947.29,137502.93,temp_26,,,,,{DFD64964-8056-4829-8AD0-E4629F29DF9E},125
-8576382.00227083,4708125.61433832,7-Eleven(Allpoint),1850 M STREET NW,20036,2,122,241300,396274.8,137501.37,temp_138,,,,,{B72E0F60-54FE-4A28-BE25-EA9E798356CE},126
-8576382.00227083,4708125.61433832,Wells Fargo,1850 M STREET NW,20036,2,5,241300,396274.8,137501.37,temp_29,,,,,{4D2D1F2D-26F0-43C9-8D3F-676DC450749A},127
-8575614.49769139,4708125.59989676,ACS FCU(star),1155 16TH STREET NW,20036,2,64,278895,396872.82,137501.1,temp_87,,,,,{AC1A5F6D-757E-40E0-A094-80B98597150B},128
-8575916.12290533,4708121.59694979,City Market(star),1150 17TH STREET NW,20036,2,67,299574,396637.8,137498.09,temp_90,,,,,{6551A26F-5CA0-4B9C-A0DC-35F2F0FB133C},129
-8575323.13567406,4708119.04895184,Westin-Washington(star),1400 M STREET NW,20005,2,82,240254,397099.84,137495.93,temp_105,,,,,{49340753-4B1E-4DF7-9364-997D102EB027},130
-8576648.14542035,4708104.73790082,CVS(Allpoint),2000 M STREET NW,20036,2,129,240946,396067.42,137485.27,temp_145,,,,,{671B2A50-E8FD-494D-8D44-C423B7C12607},131
-8577104.92338327,4708082.03872884,CVS(Allpoint),2240 M STREET NW,20037,2,136,300189,395711.5,137467.84,temp_151,,,,,{F8D5021F-05D2-4B6F-96F0-24982DDA595E},132
-8578048.98931787,4708072.28035644,George at the Four Seasons (Money Pass),2828 PENNSYLVANIA AVENUE NW,20007,2,102,301039,394975.9,137460.7,temp_124,,,,,{F74C5B30-51BE-42AF-9336-26E48703DE72},133
-8574464.47526563,4708042.40932477,CVS(Allpoint),1117 10TH STREET NW,20001,2,53,300317,397768.87,137436.24,temp_77,,,,,{8BB6C4FC-BCF0-4D10-A381-0070C45BED41},134
-8578166.3771848,4708024.6154845,Bank of Georgetown,1115 30TH STREET NW,20007,2,28,304893,394884.41,137423.77,temp_52,,,,,{1854C8B7-C96C-4D37-8AE8-C40AD293ED75},135
-8575410.31915456,4708020.02315445,Jacks' Famous Deli(star),1129 15TH STREET NW,20005,2,73,302172,397031.88,137419.11,temp_96,,,,,{858D9619-8CC5-4E05-AA7A-91317DEE75AA},136
-8575397.50261423,4707997.8634866,AFL-CIO Employees FCU(star),1125 15TH STREET NW,20005,2,80,240247,397041.86,137401.91,temp_103,,,,,{FB67B32F-4833-45F7-A6F8-7F685278CD9D},137
-8575994.44576608,4707994.03953897,Renaissance Mayflower DC(star),1127 CONNECTICUT AVENUE NW,20036,2,84,241797,396576.73,137399.13,temp_107,,,,,{CCE30036-5315-450B-983B-42F7BF8E87EB},138
-8575204.58023401,4707990.27955671,CVS(Allpoint),1199 VERMONT AVENUE NW,20005,2,120,278914,397192.18,137395.97,temp_136,,,,,{22A0F62B-FECE-410E-AFB6-BFCB2F201A69},139
-8575770.08573004,4707969.30256718,To Market To Market(star),1615 L STREET NW,20036,2,74,242027,396751.54,137379.86,temp_97,,,,,{C6EA5D26-16F9-4E35-837D-37784CFA5375},140
-8576124.84072176,4707941.1741278,Wells Fargo,1100 CONNECTICUT AVENUE NW,20036,2,7,243303,396475.11,137358.15,temp_31,,,,,{8FFBF852-94D9-4D26-8D21-1218890A2521},141
-8575929.72602314,4707937.70286545,"Capital One, NA(star)",1100 17TH STREET NW,20036,2,77,241793,396627.14,137355.39,temp_100,,,,,{F12A1EAC-A2EC-4356-8CBF-04F0961D27BF},142
-8576024.32340832,4707935.41975437,Bank of Georgetown,1101 CONNECTICUT AVENUE NW,20036,2,31,241795,396553.43,137353.65,temp_55,,,,,{1E8D8DCC-85CC-4462-99A5-6CAC34506AFF},143
-8576024.32340832,4707935.41975437,CVS(star),1101 CONNECTICUT AVENUE NW,20036,2,88,241795,396553.43,137353.65,temp_111,,,,,{CEBEE601-ED07-4873-8657-992D1F7A5589},144
-8576276.95462779,4707928.34761291,Bank of America,1801 L STREET NW,20036,2,38,240971,396356.58,137348.25,temp_62,,,,,{E4627489-7DB0-488E-B399-8DD784B3A358},145
-8575317.40591458,4707927.08316614,7-Eleven(star),1100 VERMONT AVENUE NW,20005,2,95,240250,397104.25,137346.96,temp_117,,,,,{306EE0D8-9455-4FC2-9BA1-C0691CF4A659},146
-8575317.40591458,4707927.08316614,7-Eleven(Allpoint),1100 VERMONT AVENUE NW,20005,2,119,240250,397104.25,137346.96,temp_135,,,,,{C2ECE351-44A3-4B09-A648-237D343D15B7},147
-8571954.822963,4707924.03534419,Treasury Dept. FCU,1101 2ND STREET NE,20002,6,16,285824,399724.34,137344.07,temp_208,,,,,{7D9D4B0F-722F-4A2C-8D3D-58D1D7D128C4},148
-8576512.09454873,4707871.21483525,Barmy Wine & Liquor(Allpoint),1912 L STREET NW,20036,2,128,302227,396173.34,137304,temp_144,,,,,{2A0F76DF-5535-46A9-A4E2-76631CD055D9},149
-8573644.05114109,4707857.72914527,Wells Fargo,490 L STREET NW,20001,6,5,304767,398408.1,137292.77,temp_197,,,,,{A10E10FD-80A8-4EA2-8449-D30528E28258},150
-8575346.95882171,4707847.80940244,Bank of America NA (NC)(star),1090 VERMONT AVENUE NW,20005,2,99,240259,397081.2,137285.45,temp_121,,,,,{6384A71B-5CB6-4F84-8B35-53BC6A697791},151
-8576697.78672443,4707846.07236076,CVS(Allpoint),2000 L STREET NW,20036,2,131,243349,396028.64,137284.56,temp_147,,,,,{8E7C3464-63F9-4E33-B310-168D5DAED18D},152
-8575979.98953256,4707832.3496618,CVS(Allpoint),1025 CONNECTICUT AVENUE NW,20036,2,121,241803,396587.94,137273.65,temp_137,,,,,{2AE3E13A-B24D-4AB4-8ADC-E1953735597F},153
-8575979.98953256,4707832.3496618,Washington First Bank(star),1025 CONNECTICUT AVENUE NW,20036,2,92,241803,396587.94,137273.65,temp_115,,,,,{A6A2FC7B-21B0-431D-9244-514436325B71},154
-8573682.50847872,4707831.09858074,Capital one ,1075 5TH STREET NW,20001,6,8,305164,398378.13,137272.11,temp_200,,,,,{2F24F81D-7528-420B-9FA4-D09909A1901A},155
-8575961.38736056,4707788.04246715,The Daily Market(star),1011 CONNECTICUT AVENUE NW,20036,2,87,278785,396602.42,137239.26,temp_110,,,,,{D5252B8C-095E-4335-89F1-5B198FF9A80B},156
-8575851.15873493,4707787.49660319,United Bank,1667 K STREET NW,20006,2,18,279291,396688.31,137238.8,temp_42,,,,,{A672BD3A-E4B9-4726-A225-7DFABC4FA8B9},157
-8575707.69729394,4707770.90707354,Hilton Capital(star),1000 16TH STREET NW,20006,2,86,302152,396800.09,137225.88,temp_109,,,,,{2FF657D7-7CC5-4605-A436-D44999283AE8},158
-8575938.57244861,4707765.74654063,"Capital One, NA(star)",1001 CONNECTICUT AVENUE NW,20036,2,97,278774,396620.19,137221.95,temp_119,,,,,{5E597B3D-F52E-4A86-A38A-DC58F03B90B0},159
-8575938.57244861,4707765.74654063,News World(star),1001 CONNECTICUT AVENUE NW,20036,2,98,278774,396620.19,137221.95,temp_120,,,,,{6F01E0C0-F12D-4A4A-9405-6DD18136B46F},160
-8578553.09919994,4707755.04892216,Bank of Georgetown,1001 WISCONSIN AVENUE NW,20007,2,30,295206,394582.94,137214.78,temp_54,,,,,{26C97CCE-06EC-4123-81FB-1496BCA3E33F},161
-8576286.20821517,4707677.65771689,Wells Fargo,1800 K STREET NW,20006,2,8,300930,396349.28,137153.71,temp_32,,,,,{42673A96-1659-413C-8F93-5DC62F72FF3B},162
-8575857.61938448,4707677.18988365,Manufactuers & Traders Trust Co(star),1680 K STREET NW,20006,2,96,300674,396683.24,137153.2,temp_118,,,,,{2CC07864-5B89-45C6-9C23-4952C87AD3DF},163
-8575490.07782797,4707671.79686484,7-Eleven(Allpoint),1500 K STREET NW,20005,2,123,242333,396969.63,137148.9,temp_139,,,,,{2D4432D5-7DC5-43C7-883B-F0FD3006AE48},164
-8575810.14585316,4707671.6172561,Presidential Bank FSB(star),1660 K STREET NW,20006,2,100,279290,396720.23,137148.86,temp_122,,,,,{F4C7918B-D167-4F9E-A8C0-5935D059BA61},165
-8576560.09828996,4707671.13579734,Bank of America,1990 K STREET NW,20006,2,40,218576,396135.86,137148.75,temp_64,,,,,{2791B1AB-B46C-485F-94B7-EEDF53360C34},166
-8575778.61363082,4707670.99891284,Bank of America,1612 K STREET NW,20006,2,33,279258,396744.8,137148.37,temp_57,,,,,{23894242-7D5C-48D8-BEFB-B4AB55C09F6C},167
-8576191.39091654,4707670.62680605,Cardinal Bank (Money Pass),1776 K STREET NW,20006,2,106,236718,396423.16,137148.22,temp_127,,,,,{DFE9F247-35F8-463D-8E4E-262B242BCAD1},168
-8575512.44580296,4707669.55898252,Wells Fargo,1510 K STREET NW,20005,2,11,304082,396952.2,137147.17,temp_35,,,,,{652B5F5C-E6CF-493A-BF78-955DE5CDAD08},169
-8575208.77868863,4707668.62804109,PNC,1400 K STREET NW,20005,2,19,240269,397188.82,137146.36,temp_43,,,,,{BA66BF09-4461-404B-845D-4AC0A7C443CC},170
-8575253.56638143,4707665.01680869,A1 Wine & Liquor(Allpoint),1420 K STREET NW,20005,2,125,240271,397153.92,137143.57,temp_141,,,,,{0C1CB353-A412-4A23-A01A-536D25C9D765},171
-8569644.64214695,4707654.39231435,7-Eleven(Allpoint),900 BLADENSBURG ROAD NE,20002,5,11,289050,401524.45,137134.96,temp_188,,,,,{78BF0B6E-7952-4DE5-9211-481D9968C759},172
-8574413.46664348,4707646.96143586,Metro Square News (Money Pass),901 NEW YORK AVENUE NW,20001,2,111,300397,397808.53,137129.35,temp_131,,,,,{6E49A03C-EC5E-456C-B2EA-B8C4DF052A72},173
-8574413.46664348,4707646.96143586,Capital One,901 NEW YORK AVENUE NW,20001,2,26,300397,397808.53,137129.35,temp_50,,,,,{BABBD427-284B-4334-8FEC-85AF31D0FBAE},174
-8575306.93353339,4707644.53462144,Capital One,925 15TH STREET NW,20005,2,27,218798,397112.33,137127.69,temp_51,,,,,{6897CF01-DA97-4FEC-A1E7-68612D0C0979},175
-8576025.2142914,4707622.19838866,7-Eleven(Allpoint),908 17TH STREET NW,20006,2,126,302347,396552.63,137110.58,temp_142,,,,,{631E9F14-7D0B-4660-9228-AA1723B228DF},176
-8576647.34289068,4707597.95252902,Bank of America,2001 PENNSYLVANIA AVENUE NW,20006,2,42,243321,396067.85,137091.99,temp_66,,,,,{8E56E9FD-D8D8-4F32-8A17-BE3F4E567A7D},177
-8573986.4457485,4707595.2313684,ALLY FINANCIAL INC.,650 Massachusetts Avenue NW ,20001,2,150,243177,398141.26,137089.12,temp_257,,,,,{E9D127FD-EB7A-4C26-BAEA-C93229C2ACC8},178
-8576372.65918402,4707577.08191746,United Bank,1875 I STREET NW,20006,2,17,279443,396281.88,137075.69,temp_41,,,,,{92A3F573-EF87-490C-83F2-76993AB29C6D},179
-8572393.36686659,4707577.38987928,Democracy FCU(Money Pass),888 1ST STREET NE,20002,6,29,81586,399382.61,137075.08,temp_220,,,,,{3B3A7015-8765-4326-BB78-E53362D622DE},180
-8572393.36686659,4707577.38987928,HEW FCU,888 1ST STREET NE,20002,6,18,81586,399382.61,137075.08,temp_210,,,,,{A738268C-4B3E-4F0F-B8F2-C8B9A0C4BC71},181
-8569609.87169519,4707545.87408436,CVS(Allpoint),845 BLADENSBURG ROAD NE,20002,5,12,289021,401551.56,137050.75,temp_189,,,,,{230894A5-065D-4AE9-8277-DF888ECD84CC},182
-8577359.96742689,4707524.20052718,7-Eleven(Allpoint),912 NEW HAMPSHIRE AVENUE NW,20037,2,137,277536,395512.53,137035.05,temp_152,,,,,{81F3845D-E2D6-425F-B1A8-2535495D9309},183
-8572449.86690503,4707512.00302221,Democracy FCU(Money Pass),830 1ST STREET NE,20002,6,31,289008,399338.58,137024.34,temp_222,,,,,{3345A01E-7A2C-4DB1-9047-0A60F6E8C235},184
-8575085.08489465,4707505.6402475,Bank of Georgetown,1350 I STREET NW,20005,2,32,240651,397285.16,137019.84,temp_56,,,,,{5B093918-91F0-4010-9649-67B0CCB282B4},185
-8574979.33674256,4707500.70222513,Wells Fargo,1300 I STREET NW,20005,2,12,240649,397367.56,137015.98,temp_36,,,,,{4E7AFEB5-51B5-4C52-B7EC-DB431923060C},186
-8575424.26769399,4707466.79633849,Lafyette FCU (Money Pass),811 VERMONT AVENUE NW,20571,2,110,279956,397020.85,136989.79,temp_130,,,,,{CD428807-FC56-44BB-97CA-66689D545BCE},187
-8576025.15547851,4707427.37918483,PNC,800 17TH STREET NW,20006,2,20,218758,396552.61,136959.39,temp_44,,,,,{4DBD3366-F95D-49B6-A244-04D247764257},188
-8570629.62312839,4707417.28259076,Bank of America,1102 H STREET NE,20002,6,9,74429,400756.96,136950.84,temp_201,,,,,{0FAB2EC9-5C68-47DC-92ED-96F39A3B42A8},189
-8572893.2203846,4707416.12556726,Capital one ,85 H STREET NW,20001,6,7,310066,398993.1,136949.97,temp_199,,,,,{9E4D9242-2015-4F70-8B0E-6A9F7E3DDB03},190
-8570591.99633187,4707415.70686974,Transit Employee FCU(Money Pass),1114 H STREET NE,20002,6,27,74027,400786.28,136949.62,temp_218,,,,,{2D92C8DC-CDBE-468E-A548-71D58A999DB8},191
-8571064.93831186,4707415.51100864,Bank of America,722 H STREET NE,20002,6,11,149093,400417.75,136949.44,temp_203,,,,,{0F5A8318-74E3-496A-9CAD-864E7732B636},192
-8570623.0400062,4707414.03478989,ATM Services Corporation,1104 H Street NE ,20002,6,163,74492,400762.09,136948.32,temp_270,,,,,{AF49FFA5-7F7E-4F1C-9DAD-21633C73CB68},193
-8574074.26962139,4707402.99446258,AMKO INTERNATIONAL INC.,810 7th Street NW upstairs,20001,2,168,238405,398072.79,136939.95,temp_266,,,,,{563F6866-3F37-4725-BA3E-B2AD7829CD48},194
-8573480.15173348,4707372.81542421,CVS(Allpoint),400 MASSACHUSETTS AVENUE NW,20001,6,47,289390,398535.74,136916.43,temp_71,,,,,{A8C52A28-B0FD-4D89-B961-D19B6F6A1F3C},195
-8570994.97465857,4707365.65286111,CVS(Allpoint),801 H STREET NE,20002,6,47,288965,400472.27,136910.75,temp_238,,,,,{2E5E5295-C00E-4E82-9457-5AB4C7C981A0},196
-8577006.41024968,4707357.15312093,Bank of America,801 22ND STREET NW,20052,2,39,242497,395787.96,136905.26,temp_63,,,,,{BAD1B016-AE68-4812-952E-C80BFA7C1593},197
-8574009.97751798,4707357.78172634,Walgreens(Allpoint),801 7TH STREET NW,20001,2,140,238697,398122.88,136904.85,temp_155,,,,,{7C065D05-622C-480A-AECE-161A2739A12E},198
-8571206.25986081,4707354.99409184,CVS(Allpoint),645 H STREET NE,20002,6,45,288821,400307.63,136902.47,temp_236,,,,,{5AAFE364-7C65-4F5F-AAC2-5D9039240F2C},199
-8571146.04716228,4707347.72414292,J&V Pawn Shop(Allpoint),703 H STREET NE,20002,6,46,133,400354.55,136896.83,temp_237,,,,,{0F782090-B184-4F58-A6A1-25172B30157D},200
-8572654.939141,4707346.60993053,Govt. Printing office FCU(Money Pass),732 NORTH CAPITOL STREET NW,20401,6,32,279920,399178.77,136896,temp_223,,,,,{1DABC339-8153-45E4-9C09-800093C5CD2A},201
-8575115.88760323,4707252.87974467,Wells Fargo,1350 NEW YORK AVENUE NW,20005,2,14,243198,397261.09,136823.69,temp_38,,,,,{24F66013-96AC-4EDF-BF18-EF3D9881EE5E},202
-8577702.28130875,4707219.36021093,CVS(Allpoint),2550 VIRGINIA AVENUE NW,20037,2,50,300847,395245.65,136798.63,temp_74,,,,,{9F1DDFD8-7352-44D9-8F19-3DE0A5C267FA},203
-8575114.12450572,4707201.15856803,CVS(Allpoint),717 14TH STREET NW,20005,2,134,279904,397262.45,136783.55,temp_149,,,,,{9177472F-9BBB-4566-95AE-88199ED4F4DA},204
-8574940.58985895,4707177.52125556,Bank of America,700 13TH STREET NW,20005,2,36,240654,397397.67,136765.16,temp_60,,,,,{61628011-67C8-43E0-A858-5B1F22ECA048},205
-8574549.39073369,4707174.30550757,United Bank,1001 G STREET NW,20001,2,16,239369,397702.51,136762.57,temp_40,,,,,{93BBB210-6D0B-452B-8242-32D0536E0862},206
-8576048.88539861,4707165.43364269,Wells Fargo,1700 PENNSYLVANIA AVENUE NW,20006,2,13,218408,396534.03,136756.11,temp_37,,,,,{9594A462-10CE-4ADB-923A-9E70B6A6DD5E},207
-8568748.47529095,4707115.6795952,ATM Services Corporation,"2033 BENNING ROAD, NE ",20002,7,144,52300,402222.87,136717.05,temp_276,,,,,{CB672F43-7DFA-478C-B719-AA814F50C1F2},208
-8576776.83586493,4707099.19244588,"American PCS Communications, LLC",2036 G Street NW upstairs,20052,2,160,303701,395966.75,136704.97,temp_264,,,,,{2A16321B-1C61-4901-BC62-DFFD7FDF2A30},209
-8576034.26332844,4707093.91416356,Treasury Dept. FCU (Money Pass),1700 G STREET NW,20552,2,109,301067,396545.4,136700.6,temp_129,,,,,{F1AC0D8C-8336-4324-B50A-A12EE0DC4389},210
-8575009.96041578,4707088.39675479,Wells Fargo,1310 G STREET NW,20005,2,15,240663,397343.59,136696.01,temp_39,,,,,{A7FC7764-2EC4-4595-A602-9E63E465C54A},211
-8574677.29852584,4707011.68222534,Walgreens(Allpoint),1155 F STREET NW,20004,2,52,306768,397602.8,136636.39,temp_76,,,,,{EA0E2BBE-BE5C-4C73-8DE1-9E03F32601DD},212
-8572288.9029431,4707006.56012791,Bank of America,50 MASSACHUSETTS AVENUE NE,20002,6,12,293243,399463.98,136632.07,temp_204,,,,,{9DA220E5-F4B0-4AE7-8158-558A6AAB7DAA},213
-8574765.00550944,4706955.86294336,Capital One,1200 F STREET NW,20004,2,25,300895,397534.44,136593.09,temp_49,,,,,{FFC226D8-18D3-49D6-8621-E17139DA51DE},214
-8576488.6919286,4706946.53138897,Bank of America,1900 F STREET NW,20052,2,41,241088,396191.23,136586.38,temp_65,,,,,{2FB1356E-4A6F-44A9-AE76-F2526138F45B},215
-8573866.61723745,4706946.99426778,Bank of America,610 F STREET NW,20004,2,34,306817,398234.52,136586.02,temp_58,,,,,{040518A4-7944-4225-982A-92E11DA39531},216
-8576133.03202789,4706937.43260538,White House FCU (Money Pass),1724 F STREET NW,20505,2,112,218460,396468.38,136579.19,temp_132,,,,,{5E5A0CFC-9AD1-4091-BE55-188A37869BE9},217
-8576194.05048849,4706936.19390666,The Partnership FCU (Money Pass),1776 F STREET NW,20006,2,108,218479,396420.83,136578.25,temp_128,,,,,{F12DCE11-4DE5-4A28-91E4-33816801B9BD},218
-8572095.03420902,4706896.46910859,Treasury Dept. FCU,1 COLUMBUS CIRCLE NE,20002,6,17,285727,399615.05,136546.62,temp_209,,,,,{3644A318-4FD8-4F54-891F-EB3814553A80},219
-8576468.160971,4706868.39406858,7-Eleven(Allpoint),514 19TH STREET NW,20052,2,51,279818,396207.2,136525.73,temp_75,,,,,{0DB5E099-22E6-43BC-94A5-AD4B14ED355A},220
-8573246.32711817,4706866.50591462,Lobby Mart (Allpoint),501 3RD STREET NW,20001,6,46,238368,398717.88,136523.46,temp_70,,,,,{28D08A53-ECCA-4226-8280-6B023460A873},221
-8577241.05942004,4706861.31845776,Wells Fargo,502 23RD STREET NW,20037,2,6,298794,395604.9,136520.55,temp_30,,,,,{4BF807FF-235B-46E7-8EC8-61796C2F4C75},222
-8574935.43632729,4706840.34630528,Wells Fargo,1301 PENNSYLVANIA AVENUE NW,20004,2,9,279023,397401.6,136503.48,temp_33,,,,,{AE35721B-1EA5-405C-A1AD-36242EFBBA5D},223
-8574515.63226865,4706832.07499817,Bank of America,1001 E STREET NW,20004,2,35,298254,397728.74,136496.96,temp_59,,,,,{0822D072-F5F1-46BD-9F6A-D0947C22A628},224
-8576919.2546062,4706828.90684836,CVS(Allpoint),2125 E STREET NW,20037,2,139,300954,395855.66,136495.26,temp_154,,,,,{1AEC53E2-93C7-4F34-A6FA-68B5F307567E},225
-8574204.66413566,4706785.94192162,Bank of Georgetown,822 E STREET NW,20004,2,29,301061,397971.06,136461.09,temp_53,,,,,{7E24684D-25AA-43D3-A15F-1804EAE049D1},226
-8574131.32507491,4706778.52600162,CVS(Allpoint),435 8TH STREET NW,20004,2,49,301053,398028.21,136455.32,temp_73,,,,,{832C1636-C0C2-4BCD-95F4-FC6D45E7FCFD},227
-8574707.95996793,4706772.43838493,AT&T Mobility Next Operations LLC,425 12th Street NW upstairs,20004,2,166,302108,397578.85,136450.72,temp_268,,,,,{170621D2-1B22-4E9A-821E-6ECE2265B5C1},228
-8572694.78733111,4706761.05381298,Wells Fargo,444 NORTH CAPITOL STREET NW,20001,6,4,279785,399147.67,136441.56,temp_196,,,,,{AB1B7B82-2756-40AA-80FC-46755C418520},229
-8574819.16864963,4706741.78944039,CVS(Allpoint),1275 PENNSYLVANIA AVENUE NW,20004,2,138,300418,397492.18,136426.96,temp_153,,,,,{DD18C8AA-A6BD-47BE-91B0-57EEC2F983B4},230
-8571015.99639065,4706675.30968054,7-Eleven(Allpoint),407 8TH STREET NE,20002,6,49,302103,400455.92,136374.98,temp_240,,,,,{3C8545BD-6B3F-48A0-BC02-A26A022EA43D},231
-8566155.02055654,4706620.00385029,ATM Services Corporation,3701 Benning Road NE ,20019,7,157,304573,404244.03,136333.18,temp_275,,,,,{4E3CF12D-B683-45A6-A225-101752067627},232
-8572855.86282068,4706580.72730638,ALLY FINANCIAL INC.,300 New Jersey Ave NW ,20001,6,151,306031,399022.13,136301.62,temp_259,,,,,{A6EC6DFC-BCA1-4BA5-8EFC-439C9F65651C},233
-8574092.37746439,4706563.11717724,Capital One,701 PENNSYLVANIA AVENUE NW,20004,2,24,279889,398058.52,136288.13,temp_48,,,,,{0B47462B-3D95-4E45-B459-D59B2D7AEE8B},234
-8574217.73417542,4706561.70689418,Wells Fargo,801 PENNSYLVANIA AVENUE NW,20004,2,10,279946,397960.83,136287.06,temp_34,,,,,{ACB19F81-C838-4FEB-ACA8-D6B63C5AFF1A},235
-8573442.52955009,4706545.28242561,DGE FCU,300 INDIANA AVENUE NW,20001,6,43,279642,398564.94,136274.18,temp_67,,,,,{B54C2E44-7EE0-471A-B138-4F08DB10C5B2},236
-8573203.59922876,4706404.25173135,Dept. of Labor FCU (Money Pass),200 CONSTITUTION AVENUE NW,20210,6,114,291712,398751.12,136164.69,temp_134,,,,,{F8F3E26C-FC4D-40AD-9544-9CD10177BBEE},237
-8573755.08376531,4706375.22410498,"ACFN of Mid-Maryland, LLC","555 Pennsylvania Avenue, NW ",20001,6,148,297641,398321.34,136142.24,temp_254,,,,,{EF4C3351-F1D8-4E1C-9A90-0C26F240B7D9},238
-8566072.2428471,4706354.25640356,Bank of America ,3845 MINNESOTA AVENUE NE,20019,7,1,29733,404308.65,136126.96,temp_247,,,,,{22ED0D82-485E-431D-B245-025F08646714},239
-8575254.06786936,4706305.85043888,Dept. of Coomerce FCU (Money Pass),1401 CONSTITUTION AVENUE NW,20230,2,113,301066,397153.15,136088.73,temp_133,,,,,{F759D3B3-3E6E-406B-9369-45D83174450B},240
-8574494.012928,4705757.92703642,Agriculture FCU,1000 JEFFERSON DRIVE SW,20560,2,44,293187,397745.35,135663.26,temp_68,,,,,{B9C6E452-74DB-41DB-9984-F590C1F16893},241
-8569432.47947177,4705718.16962017,The Meeting Place(star),100 17TH STREET SE,20003,7,78,76072,401690.09,135632.26,temp_101,,,,,{47D10790-62FF-4389-8EB8-3AA36E1C7C74},242
-8572126.55660234,4705512.64140186,Library of Congress(Money Pass),101 INDEPENDENCE AVENUE SE,20540,6,30,277868,399590.43,135472.56,temp_221,,,,,{278978DA-496A-427D-BEC9-43ED6182E896},243
-8571919.39035628,4705512.0316547,Wells Fargo,215 PENNSYLVANIA AVENUE SE,20003,6,3,278073,399751.89,135472.08,temp_195,,,,,{2D388338-EBE3-4F22-A970-150026AC7CB1},244
-8573203.42860674,4705481.50544462,HEW FCU,200 INDEPENDENCE AVENUE SW,20201,6,19,291713,398751.14,135448.48,temp_211,,,,,{0A76681E-6EDD-4986-B7DF-B15DB3E8BD75},245
-8573203.42860674,4705481.50544462,Democracy FCU(Money Pass),200 INDEPENDENCE AVENUE SW,20201,6,35,291713,398751.14,135448.48,temp_226,,,,,{1A0FE91A-18B1-4C58-B230-9C62F6310A98},246
-8574944.53088653,4705458.76632784,Agriculture FCU,1400 INDEPENDENCE AVENUE SW,20250,6,20,291739,397394.16,135431.16,temp_212,,,,,{5BCED7EC-9120-43C7-9DB6-E2F9D1E847F2},247
-8573685.80278157,4705425.62073193,Democracy FCU(Money Pass),400 MARYLAND AVENUE SW,20202,6,36,276614,398375.18,135405.17,temp_227,,,,,{B72EE066-867D-455B-B9CF-6BB14387AC51},248
-8569398.4256714,4705362.1469407,Bank of America NA (NC)(star),1710 MASSACHUSETTS AVENUE SE,20003,7,66,57677,401716.69,135355.92,temp_89,,,,,{9B753FF7-EB2A-4E2E-A9AA-20989A131A3D},249
-8573945.55592366,4705350.82933573,Wells Fargo,600 MARYLAND AVENUE SW,20024,6,6,5831,398172.72,135347.16,temp_198,,,,,{17F48051-9B42-4A03-951F-EA274D06B9DA},250
-8573423.33652618,4705273.69069253,Democracy FCU(Money Pass),330 C STREET SW,20201,6,33,276582,398579.72,135287.2,temp_224,,,,,{ADD7DC08-0C4A-4B69-91A0-543D9AFEFDC5},251
-8574355.93331023,4705220.56982264,Democracy FCU(Money Pass),901 D STREET SW,20024,6,37,81693,397852.85,135246.13,temp_228,,,,,{03E09E7B-646F-4355-8A20-934538F403E0},252
-8574868.41598974,4705169.14376875,CVS(Allpoint),1201 MARYLAND AVENUE SW,20024,6,41,300320,397453.41,135206.33,temp_232,,,,,{3A4B11EA-E250-4712-93E8-4A551C7E1116},253
-8573335.87676158,4705156.94899135,Lafyette FCU(Money Pass),409 3RD STREET SW,20024,6,34,156394,398647.87,135196.57,temp_225,,,,,{78E4E3F9-7290-4BAD-A92D-0A4FC5290CC6},254
-8571200.54627325,4705136.40016992,CVS(Allpoint),661 PENNSYLVANIA AVENUE SE,20003,6,52,280104,400312.15,135180.51,temp_243,,,,,{CB20656F-3FCD-4099-8E0F-862757B40887},255
-8574990.59922096,4705013.3262908,Bank of America,1330 MARYLAND AVENUE SW,20024,6,10,297583,397358.14,135085.41,temp_202,,,,,{287C6FE8-D382-4D25-A3C0-96394EECF9E0},256
-8573422.39173812,4705012.40317001,Agriculture FCU,355 E STREET SW,20024,6,21,307324,398580.42,135084.38,temp_213,,,,,{13980215-A6ED-4D45-9609-7EFE3374F636},257
-8574774.9867959,4704968.11405939,Narfe Premier(Money Pass),445 12TH STREET SW,20554,6,25,276640,397526.18,135050.26,temp_217,,,,,{8EBBFB72-F1DA-482C-B2C3-8EAE39619EAF},258
-8574663.28659869,4704964.32237041,Democracy FCU(Money Pass),550 12TH STREET SW,20024,6,38,276670,397613.24,135047.29,temp_229,,,,,{E4788923-1B2E-4054-8F87-108BD4B33904},259
-8571071.83046471,4704925.23561183,Bank of America,425 8TH STREET SE,20003,6,13,24439,400412.48,135016.6,temp_205,,,,,{39A092B2-CF8D-4323-B55F-9A6F7C4CC1FA},260
-8571074.96179662,4704909.80259333,7-Eleven(Allpoint),429 8TH STREET SE,20003,6,53,24286,400410.04,135004.62,temp_244,,,,,{FCA477E3-DFA0-4521-9773-7031D04F8E54},261
-8570482.84636637,4704871.36490599,CVS(Allpoint),500 12TH STREET SE,20003,6,23,288394,400871.55,134974.82,temp_215,,,,,{6E861D9F-2080-4FF5-AA5F-BBBD2AA59B06},262
-8570337.63335882,4704792.32750344,Sunoco(Allpoint),1248 PENNSYLVANIA AVENUE SE,20003,6,22,69747,400984.74,134913.48,temp_214,,,,,{F0F71E21-0D73-406E-877A-69C56C903523},263
-8570277.85309508,4704737.69906557,Lafyette FCU(Money Pass),1300 PENNSYLVANIA AVENUE SE,20003,6,28,156345,401031.34,134871.08,temp_219,,,,,{AE108DB2-B3D4-4ADF-9BA4-73C112BDB576},264
-8570108.89913025,4704547.70307766,Signal Financial ,1391 PENNSYLVANIA AVENUE SE,20003,6,15,302637,401163.05,134723.61,temp_207,,,,,{26144B80-6116-420B-819E-C5D60C87A241},265
-8569895.80010495,4704544.43604702,Treasury Dept. FCU(Money Pass),1400 PENNSYLVANIA AVENUE SE,20003,6,24,65074,401329.15,134721.1,temp_216,,,,,{35650EA9-8CB1-404B-8175-A2B9F05CDB39},266
-8570111.89142723,4704527.13099684,Harris Teeter(Allpoint),1350 POTOMAC AVENUE SE,20003,6,55,303730,401160.72,134707.64,temp_246,,,,,{EE23586D-FE61-46D0-94FB-9E7DD74BD985},267
-8572664.66084449,4704092.05379017,7-Eleven(Allpoint),1101 SOUTH CAPITOL STREET SW,20003,6,50,277736,399170.93,134369.85,temp_241,,,,,{8562F57E-9721-42BB-AF39-3BBAE0A81AD4},268
-8572039.88619849,4704062.30550883,CVS(Allpoint),1100 NEW JERSEY AVENUE SE,20003,8,51,285822,399657.93,134346.72,temp_242,,,,,{506FCBAF-8238-4007-91C5-CB3CAC8E55FC},269
-8572480.70092552,4704039.02590128,Wells Fargo,20 M STREET SE,20003,6,2,301132,399314.32,134328.67,temp_194,,,,,{8FA9D2CF-A4F5-4F39-AD9D-A846CAE743BE},270
-8573622.75791045,4704027.55232471,CVS(Allpoint),401 M STREET SW,20024,6,48,28161,398424.1,134319.89,temp_239,,,,,{3F91EB65-B85A-4419-907A-5B818744F3DC},271
-8572379.15393178,4703962.84128741,Bank of America,55 M STREET SE,20003,8,14,306664,399393.47,134269.52,temp_206,,,,,{3121FA59-DF5B-4C77-9137-6080494BF3B8},272
-8571611.5391241,4703957.24212076,Harris Teeter(Allpoint),401 M STREET SE,20003,8,54,309432,399991.82,134265.15,temp_245,,,,,{1D593B2E-F3B6-4D3C-BD44-3CEC28165AD7},273
-8570402.99837229,4702416.1091892,Bank of America,2100 MARTIN LUTHER KING JR AVENUE SE,20020,8,2,51883,400934.01,133068.7,temp_249,,,,,{FC04755C-34A6-4717-89E3-5949BF6FF3F9},274
-8569485.64756631,4699486.18849354,PNC,1535 ALABAMA AVENUE SE,20032,8,1,306557,401649.66,130793.59,temp_248,,,,,{73DB1291-8719-4F32-A8A1-622751B18F66},275
-8573616.33706393,4696270.44967601,NRL FCU(Money Pass),4555 OVERLOOK AVENUE SW,20375,8,3,291850,398427.91,128295.65,temp_250,,,,,{DF076AA3-5E8A-40FB-99EB-22F284DD6C79},276
